0 SCOUT A DEB
1 02989U 66005F   13283.11810635  .00000421  00000-0  28119-3 0   551
2 02989 089.7052 071.6948 0113955 018.1990 031.9930 13.96365329350109
0 SCOUT A DEB
1 02989U 66005F   13284.12085997  .00000463  00000-0  31058-3 0   561
2 02989 089.7053 071.6625 0113840 015.0504 032.7637 13.96365743350240
0 SCOUT A DEB
1 02989U 66005F   13286.12832666  .00000454  00000-0  30463-3 0   587
2 02989 089.7058 071.5980 0113589 008.7466 044.1611 13.96367333350521
0 SCOUT A DEB
1 02989U 66005F   13287.13208365  .00000477  00000-0  32047-3 0   598
2 02989 089.7061 071.5657 0113460 005.5924 049.9850 13.96368201350666
0 SCOUT A DEB
1 02989U 66005F   13288.13425457  .00000559  00000-0  37673-3 0   605
2 02989 089.7063 071.5334 0113350 002.4372 047.8440 13.96369841350800
0 SCOUT A DEB
1 02989U 66005F   13289.13990829  .00000471  00000-0  31661-3 0   611
2 02989 089.7065 071.5012 0113223 359.2744 063.2126 13.96371157350941
0 SCOUT A DEB
1 02989U 66005F   13290.14115324  .00000441  00000-0  29585-3 0   623
2 02989 089.7066 071.4690 0113103 356.1384 056.4105 13.96372214351088
0 SCOUT A DEB
1 02989U 66005F   13291.14450061  .00000423  00000-0  28322-3 0   633
2 02989 089.7067 071.4368 0112994 352.9896 060.1871 13.96373108351221
0 SCOUT A DEB
1 02989U 66005F   13292.14761317  .00000455  00000-0  30584-3 0   642
2 02989 089.7068 071.4048 0112889 349.8358 062.7943 13.96373894351363
0 SCOUT A DEB
1 02989U 66005F   13293.14994166  .00000496  00000-0  33388-3 0   654
2 02989 089.7068 071.3727 0112796 346.6694 061.4785 13.96374686351507
0 SCOUT A DEB
1 02989U 66005F   13294.15354941  .00000509  00000-0  34305-3 0   663
2 02989 089.7068 071.3407 0112738 343.4733 066.6217 13.96375579351641
0 SCOUT A DEB
1 02989U 66005F   13295.15769407  .00000561  00000-0  37833-3 0   679
2 02989 089.7068 071.3085 0112665 340.2900 074.4535 13.96376172351788
0 SCOUT A DEB
1 02989U 66005F   13296.16060944  .00000585  00000-0  39512-3 0   684
2 02989 089.7068 071.2764 0112606 337.0954 076.1230 13.96377407351928
